NORAD_CAT_ID,OBJECT_NAME,OBJECT_TYPE,EPOCH,MEAN_MOTION,ECCENTRICITY,INCLINATION,RA_OF_ASC_NODE,ARG_OF_PERICENTER,MEAN_ANOMALY,BSTAR,MEAN_MOTION_DOT,MEAN_MOTION_DDOT,TLE_LINE0,TLE_LINE1,TLE_LINE2,SEMIMAJOR_AXIS,PERIOD,APOGEE,PERIGEE,DECAYED
52538.0,STARLINK-3933,PAYLOAD,2023-07-01 02:09:48,15.08832956,9.17e-05,53.2162,220.1822,72.3446,287.7646,8.0968e-05,1.001e-05,0.0,0 STARLINK-3933,1 52538U 22051F   23182.09014812  .00001001  00000-0  80968-4 0  9991,2 52538  53.2162 220.1822 0000917  72.3446 287.7646 15.08832956 63178,6917.902,95.438,540.401,539.133,0.0
52538.0,STARLINK-3933,PAYLOAD,2023-07-02 02:00:35,15.08841645,9.22e-05,53.2164,215.7216,77.0425,283.067,5.8928e-05,6.5e-06,0.0,0 STARLINK-3933,1 52538U 22051F   23183.08374436  .00000650  00000-0  58928-4 0  9992,2 52538  53.2164 215.7216 0000922  77.0425 283.0670 15.08841645 63320,6917.875,95.437,540.378,539.103,0.0
52538.0,STARLINK-3933,PAYLOAD,2023-07-03 11:23:41,15.08840145,9.52e-05,53.2161,209.477,74.6143,285.4954,6.764e-05,7.89e-06,0.0,0 STARLINK-3933,1 52538U 22051F   23184.47478444  .00000789  00000-0  67640-4 0  9994,2 52538  53.2161 209.4770 0000952  74.6143 285.4954 15.08840145 63533,6917.88,95.438,540.404,539.086,0.0
52538.0,STARLINK-3933,PAYLOAD,2023-07-05 01:32:56,15.08837748,0.0001008,53.216,202.3402,74.5176,285.5928,2.689e-05,1.4e-06,0.0,0 STARLINK-3933,1 52538U 22051F   23186.06454665  .00000140  00000-0  26890-4 0  9993,2 52538  53.2160 202.3402 0001008  74.5176 285.5928 15.08837748 63777,6917.887,95.438,540.45,539.055,0.0
52538.0,STARLINK-3933,PAYLOAD,2023-07-06 10:56:02,15.08838763,0.0001002,53.2163,196.096,74.7159,285.3944,4.2723e-05,3.92e-06,0.0,0 STARLINK-3933,1 52538U 22051F   23187.45558755  .00000392  00000-0  42723-4 0  9994,2 52538  53.2163 196.0960 0001002  74.7159 285.3944 15.08838763 63982,6917.884,95.438,540.442,539.056,0.0
52538.0,STARLINK-3933,PAYLOAD,2023-07-07 17:08:22,15.08837937,0.0001014,53.2161,190.4459,72.4,287.7102,5.1581e-05,5.33e-06,0.0,0 STARLINK-3933,1 52538U 22051F   23188.71415031  .00000533  00000-0  51581-4 0  9992,2 52538  53.2161 190.4459 0001014  72.4000 287.7102 15.08837937 64170,6917.887,95.438,540.453,539.05,0.0
52538.0,STARLINK-3933,PAYLOAD,2023-07-09 05:42:15,15.08835247,0.0001078,53.2162,183.6058,79.0791,281.0323,1.3965e-05,-6.6e-07,0.0,0 STARLINK-3933,1 52538U 22051F   23190.23767624 -.00000066  00000-0  13965-4 0  9996,2 52538  53.2162 183.6058 0001078  79.0791 281.0323 15.08835247 64400,6917.895,95.438,540.506,539.014,0.0
52538.0,STARLINK-3933,PAYLOAD,2023-07-10 08:43:48,15.08841599,0.0001083,53.2164,178.5504,78.7966,281.3148,7.4021e-05,8.9e-06,0.0,0 STARLINK-3933,1 52538U 22051F   23191.36375194  .00000890  00000-0  74021-4 0  9992,2 52538  53.2164 178.5504 0001083  78.7966 281.3148 15.08841599 64570,6917.876,95.437,540.49,538.991,0.0
52538.0,STARLINK-3933,PAYLOAD,2023-07-11 22:53:02,15.08849705,0.000112,53.2165,171.4142,79.1368,280.975,8.7687e-05,1.108e-05,0.0,0 STARLINK-3933,1 52538U 22051F   23192.95350414  .00001108  00000-0  87687-4 0  9991,2 52538  53.2165 171.4142 0001120  79.1368 280.9750 15.08849705 64812,6917.851,95.437,540.491,538.941,0.0
52538.0,STARLINK-3933,PAYLOAD,2023-07-12 10:00:45,15.08842978,0.0001161,53.2167,169.3323,82.005,278.1074,3.5666e-05,2.8e-06,0.0,0 STARLINK-3933,1 52538U 22051F   23193.41719151  .00000280  00000-0  35666-4 0  9990,2 52538  53.2167 169.3323 0001161  82.0050 278.1074 15.08842978 64887,6917.871,95.437,540.539,538.933,0.0
52538.0,STARLINK-3933,PAYLOAD,2023-07-13 14:37:42,15.08839184,0.0001189,53.217,163.9812,84.3779,275.7348,-3.5522e-05,-8.53e-06,0.0,0 STARLINK-3933,1 52538U 22051F   23194.60951557 -.00000853  00000-0 -35522-4 0  9999,2 52538  53.2170 163.9812 0001189  84.3779 275.7348 15.08839184 65060,6917.883,95.438,540.57,538.925,0.0
52538.0,STARLINK-3933,PAYLOAD,2023-07-14 22:25:25,15.08823931,0.0001117,53.2174,158.0343,93.6436,266.4684,0.00027175,4.038e-05,0.0,0 STARLINK-3933,1 52538U 22051F   23195.93432262  .00004038  00000-0  27175-3 0  9994,2 52538  53.2174 158.0343 0001117  93.6436 266.4684 15.08823931 65267,6917.93,95.439,540.567,539.022,0.0
52538.0,STARLINK-3933,PAYLOAD,2023-07-15 06:22:20,15.08846416,0.000124,53.2175,156.5481,93.9546,266.1588,9.9662e-05,1.299e-05,0.0,0 STARLINK-3933,1 52538U 22051F   23196.26551138  .00001299  00000-0  99662-4 0  9992,2 52538  53.2175 156.5481 0001240  93.9546 266.1588 15.08846416 65315,6917.861,95.437,540.584,538.868,0.0
52538.0,STARLINK-3933,PAYLOAD,2023-07-15 14:19:16,15.08839364,0.0001275,53.2178,155.0618,92.5091,267.6047,2.6514e-05,1.34e-06,0.0,0 STARLINK-3933,1 52538U 22051F   23196.59671761  .00000134  00000-0  26514-4 0  9996,2 52538  53.2178 155.0618 0001275  92.5091 267.6047 15.08839364 65367,6917.882,95.438,540.629,538.865,0.0
52538.0,STARLINK-3933,PAYLOAD,2023-07-16 01:26:59,15.08828461,0.0001421,53.2175,152.9801,90.5133,269.6022,2.1605e-06,-2.54e-06,0.0,0 STARLINK-3933,1 52538U 22051F   23197.06040831 -.00000254  00000-0  21605-5 0  9998,2 52538  53.2175 152.9801 0001421  90.5133 269.6022 15.08828461 65431,6917.916,95.438,540.764,538.798,0.0
52538.0,STARLINK-3933,PAYLOAD,2023-07-16 14:10:04,15.0883605,0.0001303,53.2179,150.6019,90.4136,269.7006,4.3334e-05,4.02e-06,0.0,0 STARLINK-3933,1 52538U 22051F   23197.59032453  .00000402  00000-0  43334-4 0  9993,2 52538  53.2179 150.6019 0001303  90.4136 269.7006 15.08836050 65517,6917.892,95.438,540.659,538.856,0.0
52538.0,STARLINK-3933,PAYLOAD,2023-07-17 20:22:23,15.08836264,0.0001216,53.2171,144.9514,84.7991,275.314,0.00013534,1.867e-05,0.0,0 STARLINK-3933,1 52538U 22051F   23198.84888082  .00001867  00000-0  13534-3 0  9993,2 52538  53.2171 144.9514 0001216  84.7991 275.3140 15.08836264 65703,6917.892,95.438,540.598,538.916,0.0
52538.0,STARLINK-3933,PAYLOAD,2023-07-18 02:43:55,15.08844032,0.0001255,53.2175,143.7622,84.7535,275.3601,0.00016005,2.261e-05,0.0,0 STARLINK-3933,1 52538U 22051F   23199.11383633  .00002261  00000-0  16005-3 0  9991,2 52538  53.2175 143.7622 0001255  84.7535 275.3601 15.08844032 65749,6917.868,95.437,540.601,538.865,0.0
52538.0,STARLINK-3933,PAYLOAD,2023-07-19 02:34:42,15.08843287,0.0001423,53.2174,139.302,83.2902,276.8252,5.7281e-06,-1.97e-06,0.0,0 STARLINK-3933,1 52538U 22051F   23200.10743988 -.00000197  00000-0  57281-5 0  9996,2 52538  53.2174 139.3020 0001423  83.2902 276.8252 15.08843287 65895,6917.87,95.437,540.72,538.751,0.0
52538.0,STARLINK-3933,PAYLOAD,2023-07-19 20:03:58,15.08833772,0.0001641,53.2169,136.0315,78.7645,281.3531,-3.2378e-05,-8.03e-06,0.0,0 STARLINK-3933,1 52538U 22051F   23200.83608868 -.00000803  00000-0 -32378-4 0  9997,2 52538  53.2169 136.0315 0001641  78.7645 281.3531 15.08833772 66008,6917.899,95.438,540.9,538.629,0.0
52538.0,STARLINK-3933,PAYLOAD,2023-07-20 23:05:31,15.08760467,0.0001899,53.2181,130.9745,102.0862,258.0343,0.0010524,0.00016464,0.0,0 STARLINK-3933,1 52538U 22051F   23201.96217545  .00016464  00000-0  10524-2 0  9995,2 52538  53.2181 130.9745 0001899 102.0862 258.0343 15.08760467 66179,6918.124,95.443,541.302,538.675,0.0
52538.0,STARLINK-3933,PAYLOAD,2023-07-21 00:40:54,15.08837338,0.000163,53.218,130.677,113.4586,246.6577,7.9558e-05,9.78e-06,0.0,0 STARLINK-3933,1 52538U 22051F   23202.02840524  .00000978  00000-0  79558-4 0  9999,2 52538  53.2180 130.6770 0001630 113.4586 246.6577 15.08837338 66180,6917.889,95.438,540.881,538.626,0.0
52538.0,STARLINK-3933,PAYLOAD,2023-07-24 03:24:03,15.0883506,0.000224,53.2179,116.6983,76.5721,283.5521,-3.4662e-05,-8.4e-06,0.0,0 STARLINK-3933,1 52538U 22051F   23205.14170147 -.00000840  00000-0 -34662-4 0  9999,2 52538  53.2179 116.6983 0002240  76.5721 283.5521 15.08835060 66589,6917.895,95.438,541.31,538.211,0.0
52538.0,STARLINK-3933,PAYLOAD,2023-07-25 03:14:48,15.08850129,0.0001599,53.218,112.2369,122.3593,237.7554,8.1262e-05,1.006e-05,0.0,0 STARLINK-3933,1 52538U 22051F   23206.13528552  .00001006  00000-0  81262-4 0  9997,2 52538  53.2180 112.2369 0001599 122.3593 237.7554 15.08850129 66731,6917.849,95.437,540.821,538.608,0.0
52538.0,STARLINK-3933,PAYLOAD,2023-07-25 23:54:50,15.08841968,0.0001313,53.218,108.3758,82.6645,277.4497,0.0001142,1.53e-05,0.0,0 STARLINK-3933,1 52538U 22051F   23206.99641472  .00001530  00000-0  11420-3 0  9998,2 52538  53.2180 108.3758 0001313  82.6645 277.4497 15.08841968 66861,6917.874,95.437,540.648,538.831,0.0
52538.0,STARLINK-3933,PAYLOAD,2023-07-26 17:24:04,15.08780964,0.0001858,53.2186,105.1042,111.7007,248.4183,0.0011144,0.00017464,0.0,0 STARLINK-3933,1 52538U 22051F   23207.72505504  .00017464  00000-0  11144-2 0  9990,2 52538  53.2186 105.1042 0001858 111.7007 248.4183 15.08780964 67047,6918.061,95.441,541.211,538.64,0.0
52538.0,STARLINK-3933,PAYLOAD,2023-07-27 02:56:24,15.08823372,0.0001586,53.2169,103.3196,103.5486,256.5683,0.0014211,0.00022391,0.0,0 STARLINK-3933,1 52538U 22051F   23208.12250345  .00022391  00000-0  14211-2 0  9998,2 52538  53.2169 103.3196 0001586 103.5486 256.5683 15.08823372 67109,6917.931,95.439,540.893,538.699,0.0
52538.0,STARLINK-3933,PAYLOAD,2023-07-27 23:36:24,15.08833115,0.0001217,53.2168,99.4546,101.3007,258.8122,-9.7266e-05,-1.835e-05,0.0,0 STARLINK-3933,1 52538U 22051F   23208.98361545 -.00001835  00000-0 -97266-4 0  9992,2 52538  53.2168  99.4546 0001217 101.3007 258.8122 15.08833115 67231,6917.901,95.438,540.608,538.925,0.0
52538.0,STARLINK-3933,PAYLOAD,2023-07-29 01:02:34,15.08845951,0.0001149,53.217,94.697,104.7598,255.3522,0.0003943,5.994e-05,0.0,0 STARLINK-3933,1 52538U 22051F   23210.04345574  .00005994  00000-0  39430-3 0  9992,2 52538  53.2170  94.6970 0001149 104.7598 255.3522 15.08845951 67392,6917.862,95.437,540.522,538.932,0.0
52538.0,STARLINK-3933,PAYLOAD,2023-07-29 20:07:12,15.08846934,0.0001181,53.2172,91.1292,106.7384,253.3738,0.00032104,4.826e-05,0.0,0 STARLINK-3933,1 52538U 22051F   23210.83833596  .00004826  00000-0  32104-3 0  9999,2 52538  53.2172  91.1292 0001181 106.7384 253.3738 15.08846934 67517,6917.859,95.437,540.541,538.907,0.0
